              M50 Cartesian                         M50 Keplerian  
    -----------------------------------       --------------------------------
     X    =       -3102204.16                 A    =         6784700.81  meter
     Y    =        5179890.29  meter          E    =           .0014122
     Z    =        3082252.31                 I    =           51.43938
     XDOT =      -5890.043831                 Wp   =           90.69009
     YDOT =       -614.499114  meter/sec      RA   =          324.93034  deg
     ZDOT =      -4876.272272                 TA   =           53.75638
                                              MA   =           53.62595
                                              Ha   =            221.126  n.mi
                                              Hp   =            213.904
 
              M50 Cartesian                         J2K Cartesian  
    -----------------------------------       --------------------------------
     X    =      -10177835.17                 X    =        -3174868.97
     Y    =       16994390.71  feet           Y    =         5144793.18  meter
     Z    =       10112376.35                 Z    =         3067005.63
     XDOT =     -19324.290784                 XDOT =       -5859.047293
     YDOT =      -2016.073209  feet/sec       YDOT =        -680.192338  meter/sec
     ZDOT =     -15998.268609                 ZDOT =       -4904.809881
 
              TDR Cartesian                         TDR Cartesian  
    -----------------------------------       --------------------------------
     X    =        6889789.66                 X    =         2100007.89
     Y    =       18608700.20  feet           Y    =         5671931.82  meter
     Z    =       10045141.87                 Z    =         3061759.24
     XDOT =     -12212.974508                 XDOT =       -3722.514630
     YDOT =      13258.869015  feet/sec       YDOT =        4041.303276  meter/sec
     ZDOT =     -16122.071516                 ZDOT =       -4914.007398
  
  
    The mean element set is posted at the UTC for which position is
    just north of the next ascending node relative to the above
    vector time
 
 
    TWO LINE MEAN ELEMENT SET
  
    ISS
    1 25544U 98067A   16115.59192086  .00016717  00000-0  10270-3 0  9113
    2 25544  51.6408 325.3701 0001566  46.6887 313.4397 15.54353236 36640
  
  
    Satellite: ISS
    Catalog Number: 25544
    Epoch time:      16115.59192086   =   yrday.fracday
    Element set:     911
    Inclination:       51.6408  deg
    RA of node:       325.3701  deg
    Eccentricity:     .0001566     
    Arg of perigee:    46.6887  deg
    Mean anomaly:     313.4397  deg
    Mean motion:   15.54353236  rev/day
    Decay rate:    1.67170E-04  rev/day^2
    Epoch rev:            3664
    Checksum:              317
 
 
    Coasting Arc #13 (Orbit 3678)
    ---------------------------------------
 
    Vector Time (GMT): 2016/116/13:16:58.235
    Vector Time (MET): N/A
    Weight (LBS)     : 945238.6
 
              M50 Cartesian                         M50 Keplerian  
    -----------------------------------       --------------------------------
     X    =        4208295.06                 A    =         6787814.33  meter
     Y    =       -5104739.98  meter          E    =           .0009860
     Z    =       -1502325.63                 I    =           51.42292
     XDOT =       4609.387684                 Wp   =           40.70453
     YDOT =       2116.175300  meter/sec      RA   =          319.93737  deg
     ZDOT =       5749.890018                 TA   =          302.84050
                                              MA   =          302.93540
                                              Ha   =            221.220  n.mi
                                              Hp   =            213.846
 
              M50 Cartesian                         J2K Cartesian  
    -----------------------------------       --------------------------------
     X    =       13806742.32                 X    =         4272362.55
     Y    =      -16747834.57  feet           Y    =        -5057321.82  meter
     Z    =       -4928889.87                 Z    =        -1481726.72
     XDOT =      15122.663006                 XDOT =        4557.450510
     YDOT =       6942.832349  feet/sec       YDOT =        2167.430234  meter/sec
     ZDOT =      18864.468564                 ZDOT =        5772.155488
 
              TDR Cartesian                         TDR Cartesian  
    -----------------------------------       --------------------------------
     X    =       -4818381.75                 X    =        -1468642.76
     Y    =      -21184494.76  feet           Y    =        -6457034.00  meter
     Z    =       -4838432.68                 Z    =        -1474754.28
     XDOT =      13112.907007                 XDOT =        3996.814056
     YDOT =      -7291.165207  feet/sec       YDOT =       -2222.347155  meter/sec
     ZDOT =      18960.735786                 ZDOT =        5779.232268
  
  
    The mean element set is posted at the UTC for which position is
    just north of the next ascending node relative to the above
    vector time
 
 
    TWO LINE MEAN ELEMENT SET
  
    ISS
    1 25544U 98067A   16116.55632990  .00016717  00000-0  10270-3 0  9124
    2 25544  51.6398 320.5595 0001593  59.4929 300.6381 15.54330827 36793
  
  
    Satellite: ISS
    Catalog Number: 25544
    Epoch time:      16116.55632990   =   yrday.fracday
    Element set:     912
    Inclination:       51.6398  deg
    RA of node:       320.5595  deg
    Eccentricity:     .0001593     
    Arg of perigee:    59.4929  deg
    Mean anomaly:     300.6381  deg
    Mean motion:   15.54330827  rev/day
    Decay rate:    1.67170E-04  rev/day^2
    Epoch rev:            3679
    Checksum:              331
 
 
    Coasting Arc #14 (Orbit 3694)
    ---------------------------------------
 
    Vector Time (GMT): 2016/117/13:16:58.235
    Vector Time (MET): N/A
    Weight (LBS)     : 945238.6
 
              M50 Cartesian                         M50 Keplerian  
    -----------------------------------       --------------------------------
     X    =       -4949125.31                 A    =         6788534.64  meter
     Y    =        4630710.15  meter          E    =           .0011833
     Z    =        -289478.83                 I    =           51.40231
     XDOT =      -3090.055070                 Wp   =          128.42939
     YDOT =      -3665.781290  meter/sec      RA   =          314.94997  deg
     ZDOT =      -5984.213593                 TA   =           54.70046
                                              MA   =           54.58985
                                              Ha   =            221.127  n.mi
                                              Hp   =            213.727
 
              M50 Cartesian                         J2K Cartesian  
    -----------------------------------       --------------------------------
     X    =      -16237287.75                 X    =        -4999133.05
     Y    =       15192618.59  feet           Y    =         4575086.13  meter
     Z    =        -949733.68                 Z    =         -313642.31
     XDOT =     -10137.975953                 XDOT =       -3019.764544
     YDOT =     -12026.841502  feet/sec       YDOT =       -3699.943361  meter/sec
     ZDOT =     -19633.246695                 ZDOT =       -5999.053788
 
              TDR Cartesian                         TDR Cartesian  
    -----------------------------------       --------------------------------
     X    =        2505896.11                 X    =          763797.13
     Y    =       22090120.44  feet           Y    =         6733068.71  meter
     Z    =       -1055571.30                 Z    =         -321738.13
     XDOT =     -14015.576765                 XDOT =       -4271.947798
     YDOT =        673.169703  feet/sec       YDOT =         205.182125  meter/sec
     ZDOT =     -19696.966057                 ZDOT =       -6003.635254
  
  
    The mean element set is posted at the UTC for which position is
    just north of the next ascending node relative to the above
    vector time
 
 
    TWO LINE MEAN ELEMENT SET
  
    ISS
    1 25544U 98067A   16117.58502221  .00016717  00000-0  10270-3 0  9132
    2 25544  51.6401 315.4292 0001743  55.9149 304.2169 15.54386220 36957
  
  
    Satellite: ISS
    Catalog Number: 25544
    Epoch time:      16117.58502221   =   yrday.fracday
    Element set:     913
    Inclination:       51.6401  deg
    RA of node:       315.4292  deg
    Eccentricity:     .0001743     
    Arg of perigee:    55.9149  deg
    Mean anomaly:     304.2169  deg
    Mean motion:   15.54386220  rev/day
    Decay rate:    1.67170E-04  rev/day^2
    Epoch rev:            3695
    Checksum:              293
 
 
    Coasting Arc #15 (Orbit 3710)
    ---------------------------------------
 
    Vector Time (GMT): 2016/118/13:16:58.235
    Vector Time (MET): N/A
    Weight (LBS)     : 945238.6
 
              M50 Cartesian                         M50 Keplerian  
    -----------------------------------       --------------------------------
     X    =        5259640.11                 A    =         6786895.31  meter
     Y    =       -3775623.71  meter          E    =           .0015580
     Z    =        2010854.43                 I    =           51.37411
     XDOT =       1518.662023                 Wp   =           68.59257
     YDOT =       5082.805815  meter/sec      RA   =          309.95855  deg
     ZDOT =       5542.242002                 TA   =          313.72003
                                              MA   =          313.84896
                                              Ha   =            221.163  n.mi
                                              Hp   =            213.707
 
